DMSP 5D-3 F16 (USA 172) 
1 28054U 03048A   26190.85620369 -.00000041  00000+0  24641-5 0  9998
2 28054  98.9896 214.8339 0008164  84.2457 261.5042 14.14484868172681
METEOSAT-9 (MSG-2)      
1 28912U 05049B   26190.72046928  .00000128  00000+0  00000+0 0  9995
2 28912   9.4096  53.9401 0002053 358.7521 180.0106  1.00269654  7225
DMSP 5D-3 F17 (USA 191) 
1 29522U 06050A   26190.79728354 -.00000020  00000+0  12051-4 0  9999
2 29522  98.7384 196.9051 0010052 358.5243   1.5900 14.14995893 15622
FENGYUN 3A              
1 32958U 08026A   26190.74299394  .00000025  00000+0  32429-4 0  9998
2 32958  98.6887 131.1547 0009815  65.9784 294.2419 14.19575738938606
GOES 14                 
1 35491U 09033A   26190.80811837 -.00000342  00000+0  00000+0 0  9999
2 35491   1.7449  82.7629 0001931  38.1251 226.1824  1.00100949  6811
DMSP 5D-3 F18 (USA 210) 
1 35951U 09057A   26190.84081811  .00000211  00000+0  13252-3 0  9992
2 35951  98.9051 171.5621 0010905 180.5830 179.5332 14.14909272862791
EWS-G2 (GOES 15)        
1 36411U 10008A   26190.79529163  .00000033  00000+0  00000+0 0  9998
2 36411   1.3366  82.5328 0005225  52.2028 142.6761  1.00268011 59861
COMS 1                  
1 36744U 10032A   26189.35480981 -.00000198  00000+0  00000+0 0  9991
2 36744   4.8563  75.1008 0011359  14.7290 313.4314  0.99169315 51294
FENGYUN 3B              
1 37214U 10059A   26190.87143197 -.00000304  00000+0 -13375-3 0  9990
2 37214  98.9611 236.9809 0023048 120.9574 343.1493 14.14844541810636
SUOMI NPP               
1 37849U 11061A   26190.82556368  .00000030  00000+0  35072-4 0  9994
2 37849  98.7956 131.5475 0000578 252.8200 107.2913 14.19521962761650
METEOSAT-10 (MSG-3)     
1 38552U 12035B   26190.78274213  .00000001  00000+0  00000+0 0  9995
2 38552   4.7222  60.9041 0001145  19.1415 129.5271  1.00269916 51089
METOP-B                 
1 38771U 12049A   26190.78509881  .00000052  00000+0  43625-4 0  9996
2 38771  98.6492 241.8321 0001064 289.4373  70.6690 14.21445394716474
INSAT-3D                
1 39216U 13038B   26190.80837838 -.00000328  00000+0  00000+0 0  9991
2 39216   1.9813  82.2565 0000505  75.1712 190.8571  1.00271157 47305
FENGYUN 3C              
1 39260U 13052A   26190.87131056  .00000043  00000+0  43095-4 0  9991
2 39260  98.4993 163.7061 0013904 322.2109  37.8088 14.15760067661772
METEOR-M 2              
1 40069U 14037A   26190.81113938 -.00000204  00000+0 -73851-4 0  9991
2 40069  98.5128 165.7491 0005477 344.1090  15.9915 14.21467602622532
HIMAWARI-8              
1 40267U 14060A   26190.81054506 -.00000264  00000+0  00000+0 0  9998
2 40267   0.0307 288.6677 0000813 199.9206 231.6051  1.00269469 42981
FENGYUN 2G              
1 40367U 14090A   26190.80719515 -.00000292  00000+0  00000+0 0  9990
2 40367   5.6923  72.5471 0004060 150.8370  94.3226  1.00262790 42220
METEOSAT-11 (MSG-4)     
1 40732U 15034A   26190.78456213  .00000071  00000+0  00000+0 0  9999
2 40732   3.2564  70.9695 0002266 351.9064 156.5395  1.00270172  7447
ELEKTRO-L 2             
1 41105U 15074A   26189.42539329 -.00000107  00000+0  00000+0 0  9998
2 41105   6.7437  70.2631 0000693 230.4230 124.3160  1.00273098 38717
SENTINEL-3A             
1 41335U 16011A   26190.79838541  .00000039  00000+0  34352-4 0  9990
2 41335  98.6239 257.8562 0001399  91.8963 268.2377 14.26738793541283
INSAT-3DR               
1 41752U 16054A   26190.76572230 -.00000065  00000+0  00000+0 0  9995
2 41752   0.0554  89.0522 0010561 181.4566   6.8521  1.00272040 36046
HIMAWARI-9              
1 41836U 16064A   26190.81063171  .00000000  00000+0  00000+0 0  9992
2 41836   0.0222  38.2950 0002189 137.7770 184.2635  1.00271151 35431
GOES 16                 
1 41866U 16071A   26190.61939271 -.00000078  00000+0  00000+0 0  9990
2 41866   0.3887  85.5442 0000536  91.0093 229.2970  1.00271434 35323
FENGYUN 4A              
1 41882U 16077A   26190.87850483 -.00000347  00000+0  00000+0 0  9998
2 41882   2.3764  80.0393 0008366 158.4443 129.3714  1.00271335 35155
CYGFM05                 
1 41884U 16078A   26190.16963986  .00020564  00000+0  26866-3 0  9990
2 41884  34.9558 114.9184 0007159 339.6306  20.4132 15.57650420532187
CYGFM04                 
1 41885U 16078B   26190.83649015  .00025381  00000+0  27151-3 0  9999
2 41885  34.9322  77.0141 0004982  25.1233 334.9734 15.62839197532543
CYGFM02                 
1 41886U 16078C   26190.79223398  .00033425  00000+0  31391-3 0  9996
2 41886  34.9401  71.1594 0005778  28.5918 331.5125 15.66068349532713
CYGFM01                 
1 41887U 16078D   26190.21259684  .00021464  00000+0  27290-3 0  9994
2 41887  34.9387 115.5083 0007085 333.7485  26.2879 15.58363321532146
CYGFM08                 
1 41888U 16078E   26190.83663878  .00024282  00000+0  27640-3 0  9997
2 41888  34.9424  90.3285 0007130  13.2576 346.8336 15.61236914532516
CYGFM07                 
1 41890U 16078G   26190.79432189  .00024095  00000+0  27329-3 0  9990
2 41890  34.9442  78.9327 0005455  26.1089 333.9911 15.61343638532538
CYGFM03                 
1 41891U 16078H   26190.76546757  .00023098  00000+0  26220-3 0  9996
2 41891  34.9397  81.0553 0005420  10.0090 350.0742 15.61327759532505
